[{"OBJECT_NAME":"ION SCV-010","OBJECT_ID":"2023-054Q","EPOCH":"2026-03-09T16:02:35.904768","MEAN_MOTION":15.25210322,"ECCENTRICITY":0.00127052,"INCLINATION":97.3904,"RA_OF_ASC_NODE":319.4312,"ARG_OF_PERICENTER":188.785,"MEAN_ANOMALY":171.3168,"EPHEMERIS_TYPE":0,"CLASSIFICATION_TYPE":"U","NORAD_CAT_ID":56192,"ELEMENT_SET_NO":999,"REV_AT_EPOCH":16102,"BSTAR":0.00025045068,"MEAN_MOTION_DOT":6.231e-5,"MEAN_MOTION_DDOT":0},{"OBJECT_NAME":"STARLINK-30336","OBJECT_ID":"2023-129F","EPOCH":"2026-03-09T10:19:17.890752","MEAN_MOTION":15.26764582,"ECCENTRICITY":0.00027778,"INCLINATION":43.0053,"RA_OF_ASC_NODE":119.3118,"ARG_OF_PERICENTER":264.8085,"MEAN_ANOMALY":95.2449,"EPHEMERIS_TYPE":0,"CLASSIFICATION_TYPE":"U","NORAD_CAT_ID":57703,"ELEMENT_SET_NO":999,"REV_AT_EPOCH":14050,"BSTAR":-0.00094572097,"MEAN_MOTION_DOT":-0.00025562,"MEAN_MOTION_DDOT":0}]
